FENGYUN 1C DEB          
1 32361U 99025CZE 17345.36551635  .00000895  00000-0  38559-3 0  9999
2 32361  98.8006 294.0328 0072571 311.1470 203.1925 14.25697272547750
